{
  "links" : {
    "next" : "https://api.nasa.gov/neo/rest/v1/feed?start_date=2008-06-09&end_date=2008-06-09&detailed=true&api_key=t0TVs3DtDT2H8Oy2Zy8m2eVrNsAVKAexjcZXUckd",
    "prev" : "https://api.nasa.gov/neo/rest/v1/feed?start_date=2008-06-07&end_date=2008-06-07&detailed=true&api_key=t0TVs3DtDT2H8Oy2Zy8m2eVrNsAVKAexjcZXUckd",
    "self" : "https://api.nasa.gov/neo/rest/v1/feed?start_date=2008-06-08&end_date=2008-06-08&detailed=true&api_key=t0TVs3DtDT2H8Oy2Zy8m2eVrNsAVKAexjcZXUckd"
  },
  "element_count" : 7,
  "near_earth_objects" : {
    "2008-06-08" : [ {
      "links" : {
        "self" : "https://api.nasa.gov/neo/rest/v1/neo/3766499?api_key=t0TVs3DtDT2H8Oy2Zy8m2eVrNsAVKAexjcZXUckd"
      },
      "neo_reference_id" : "3766499",
      "name" : "(2017 AN19)",
      "nasa_jpl_url" : "http://ssd.jpl.nasa.gov/sbdb.cgi?sstr=3766499",
      "absolute_magnitude_h" : 19.6,
      "estimated_diameter" : {
        "kilometers" : {
          "estimated_diameter_min" : 0.3195618867,
          "estimated_diameter_max" : 0.7145621017
        },
        "meters" : {
          "estimated_diameter_min" : 319.5618867213,
          "estimated_diameter_max" : 714.5621017269
        },
        "miles" : {
          "estimated_diameter_min" : 0.1985664891,
          "estimated_diameter_max" : 0.4440081677
        },
        "feet" : {
          "estimated_diameter_min" : 1048.4314204307,
          "estimated_diameter_max" : 2344.3639258298
        }
      },
      "is_potentially_hazardous_asteroid" : true,
      "close_approach_data" : [ {
        "close_approach_date" : "2008-06-08",
        "epoch_date_close_approach" : 1212908400000,
        "relative_velocity" : {
          "kilometers_per_second" : "12.413760127",
          "kilometers_per_hour" : "44689.5364571266",
          "miles_per_hour" : "27768.3400280407"
        },
        "miss_distance" : {
          "astronomical" : "0.2001372985",
          "lunar" : "77.8534088135",
          "kilometers" : "29940114",
          "miles" : "18603924"
        },
        "orbiting_body" : "Earth"
      } ],
      "orbital_data" : {
        "orbit_id" : "8",
        "orbit_determination_date" : "2017-09-14 06:18:56",
        "orbit_uncertainty" : "4",
        "minimum_orbit_intersection" : ".0327154",
        "jupiter_tisserand_invariant" : "4.418",
        "epoch_osculation" : "2458000.5",
        "eccentricity" : ".3688686703148984",
        "semi_major_axis" : "1.495287580757355",
        "inclination" : "19.76804106449096",
        "ascending_node_longitude" : "281.3490589312497",
        "orbital_period" : "667.8601278208076",
        "perihelion_distance" : ".943722839105008",
        "perihelion_argument" : "329.277469078113",
        "aphelion_distance" : "2.046852322409701",
        "perihelion_time" : "2457952.161030289846",
        "mean_anomaly" : "26.05639769578316",
        "mean_motion" : ".5390350239572783",
        "equinox" : "J2000"
      }
    } ]
  }
}